[{"OBJECT_NAME":"QIANFAN-103","OBJECT_ID":"2025-233N","EPOCH":"2026-03-14T21:37:03.011520","MEAN_MOTION":13.5100688,"ECCENTRICITY":0.00020391,"INCLINATION":88.9951,"RA_OF_ASC_NODE":52.7179,"ARG_OF_PERICENTER":90.5655,"MEAN_ANOMALY":269.573,"EPHEMERIS_TYPE":0,"CLASSIFICATION_TYPE":"U","NORAD_CAT_ID":66045,"ELEMENT_SET_NO":999,"REV_AT_EPOCH":2045,"BSTAR":7.9554398e-5,"MEAN_MOTION_DOT":6.3e-7,"MEAN_MOTION_DDOT":0},{"OBJECT_NAME":"QIANFAN-104","OBJECT_ID":"2025-233P","EPOCH":"2026-03-14T21:42:37.437408","MEAN_MOTION":13.51011104,"ECCENTRICITY":0.00021192,"INCLINATION":88.9956,"RA_OF_ASC_NODE":52.6154,"ARG_OF_PERICENTER":83.6079,"MEAN_ANOMALY":276.5313,"EPHEMERIS_TYPE":0,"CLASSIFICATION_TYPE":"U","NORAD_CAT_ID":66046,"ELEMENT_SET_NO":999,"REV_AT_EPOCH":2050,"BSTAR":8.7221756e-5,"MEAN_MOTION_DOT":6.8e-7,"MEAN_MOTION_DDOT":0},{"OBJECT_NAME":"QIANFAN-105","OBJECT_ID":"2025-233Q","EPOCH":"2026-03-14T21:54:40.234752","MEAN_MOTION":13.50982286,"ECCENTRICITY":0.00021895,"INCLINATION":88.9969,"RA_OF_ASC_NODE":52.445,"ARG_OF_PERICENTER":89.4522,"MEAN_ANOMALY":270.688,"EPHEMERIS_TYPE":0,"CLASSIFICATION_TYPE":"U","NORAD_CAT_ID":66047,"ELEMENT_SET_NO":999,"REV_AT_EPOCH":2061,"BSTAR":7.180042e-5,"MEAN_MOTION_DOT":5.8e-7,"MEAN_MOTION_DDOT":0},{"OBJECT_NAME":"QIANFAN-106","OBJECT_ID":"2025-233R","EPOCH":"2026-03-14T23:35:29.482368","MEAN_MOTION":13.51005887,"ECCENTRICITY":0.00023942,"INCLINATION":88.9938,"RA_OF_ASC_NODE":52.6804,"ARG_OF_PERICENTER":80.9085,"MEAN_ANOMALY":279.2337,"EPHEMERIS_TYPE":0,"CLASSIFICATION_TYPE":"U","NORAD_CAT_ID":66048,"ELEMENT_SET_NO":999,"REV_AT_EPOCH":2047,"BSTAR":4.8606357e-5,"MEAN_MOTION_DOT":4.3e-7,"MEAN_MOTION_DDOT":0},{"OBJECT_NAME":"QIANFAN-107","OBJECT_ID":"2025-233S","EPOCH":"2026-03-14T22:00:45.241920","MEAN_MOTION":13.51003932,"ECCENTRICITY":0.00020457,"INCLINATION":88.9953,"RA_OF_ASC_NODE":52.7046,"ARG_OF_PERICENTER":89.6346,"MEAN_ANOMALY":270.504,"EPHEMERIS_TYPE":0,"CLASSIFICATION_TYPE":"U","NORAD_CAT_ID":66049,"ELEMENT_SET_NO":999,"REV_AT_EPOCH":2046,"BSTAR":7.7958145e-5,"MEAN_MOTION_DOT":6.2e-7,"MEAN_MOTION_DDOT":0},{"OBJECT_NAME":"QIANFAN-108","OBJECT_ID":"2025-233T","EPOCH":"2026-03-14T22:06:38.972160","MEAN_MOTION":13.51005324,"ECCENTRICITY":0.00023361,"INCLINATION":88.9946,"RA_OF_ASC_NODE":52.6986,"ARG_OF_PERICENTER":80.8863,"MEAN_ANOMALY":279.2552,"EPHEMERIS_TYPE":0,"CLASSIFICATION_TYPE":"U","NORAD_CAT_ID":66050,"ELEMENT_SET_NO":999,"REV_AT_EPOCH":2046,"BSTAR":5.9139793e-5,"MEAN_MOTION_DOT":5.0e-7,"MEAN_MOTION_DDOT":0}]
