QIANFAN-103             
1 66045U 25233N   26073.90072930  .00000063  00000+0  79554-4 0  9996
2 66045  88.9951  52.7179 0002039  90.5655 269.5730 13.51006880 20453
QIANFAN-104             
1 66046U 25233P   26073.90459997  .00000068  00000+0  87222-4 0  9995
2 66046  88.9956  52.6154 0002119  83.6079 276.5313 13.51011104 20509
QIANFAN-105             
1 66047U 25233Q   26073.91296568  .00000058  00000+0  71800-4 0  9994
2 66047  88.9969  52.4450 0002189  89.4522 270.6880 13.50982286 20618
QIANFAN-106             
1 66048U 25233R   26073.98298012  .00000043  00000+0  48606-4 0  9990
2 66048  88.9938  52.6804 0002394  80.9085 279.2337 13.51005887 20478
QIANFAN-107             
1 66049U 25233S   26073.91719030  .00000062  00000+0  77958-4 0  9995
2 66049  88.9953  52.7046 0002045  89.6346 270.5040 13.51003932 20467
QIANFAN-108             
1 66050U 25233T   26073.92128440  .00000050  00000+0  59140-4 0  9997
2 66050  88.9946  52.6986 0002336  80.8863 279.2552 13.51005324 20464
